KUIPER-00100            
1 65139U 25171H   25243.56706359  .00029224  00000+0  83715-3 0  9992
2 65139  51.8771 308.0356 0004779 205.7944 154.2804 15.35673194  4325
KUIPER-00102            
1 65140U 25171J   25243.57102767  .00044205  00000+0  12706-2 0  9995
2 65140  51.8770 308.0609 0004229 221.5600 138.5065 15.35368898  4328
KUIPER-00103            
1 65141U 25171K   25243.56876929  .00023477  00000+0  67707-3 0  9993
2 65141  51.8769 308.0465 0004211 211.8035 148.2697 15.35586951  4323
KUIPER-00104            
1 65142U 25171L   25243.56780022  .00039571  00000+0  11310-2 0  9992
2 65142  51.8785 308.0485 0004061 211.5261 148.5482 15.35597248  4321
KUIPER-00105            
1 65143U 25171M   25243.56168334  .00025129  00000+0  71120-3 0  9999
2 65143  51.8772 308.0050 0005356 187.8338 172.2566 15.36132377  4331
KUIPER-00106            
1 65144U 25171N   25243.56598998  .00022626  00000+0  64847-3 0  9990
2 65144  51.8772 308.0288 0004747 200.1690 159.9109 15.35802720  4338
KUIPER-00107            
1 65145U 25171P   25243.56661817  .00019517  00000+0  56279-3 0  9997
2 65145  51.8782 308.0404 0004893 203.4677 156.6087 15.35707240  4333
KUIPER-00108            
1 65146U 25171Q   25243.57133061  .00035489  00000+0  10263-2 0  9992
2 65146  51.8786 308.0718 0005016 223.8953 136.1635 15.35277226  4335
KUIPER-00109            
1 65147U 25171R   25243.56431242  .00032207  00000+0  91628-3 0  9994
2 65147  51.8773 308.0203 0004902 198.5298 161.5510 15.35837124  4326
KUIPER-00110            
1 65148U 25171S   25243.56548269  .00023278  00000+0  66583-3 0  9993
2 65148  51.8780 308.0324 0004750 197.6265 162.4557 15.35848437  4324
KUIPER-00111            
1 65149U 25171T   25243.56898515  .00030651  00000+0  88011-3 0  9999
2 65149  51.8785 308.0558 0004033 217.1552 142.9155 15.35576620  4329
KUIPER-00112            
1 65150U 25171U   25243.57243964  .00044769  00000+0  12899-2 0  9999
2 65150  51.8782 308.0765 0005073 232.1804 127.8723 15.35284468  4329
KUIPER-00114            
1 65151U 25171V   25243.57097011  .00037256  00000+0  10736-2 0  9991
2 65151  51.8778 308.0645 0004377 221.0718 138.9939 15.35366812  4325
KUIPER-00115            
1 65152U 25171W   25243.56551671  .00022664  00000+0  65044-3 0  9998
2 65152  51.8773 308.0264 0004831 197.0310 163.0515 15.35760015  4325
KUIPER-00116            
1 65153U 25171X   25243.56901083  .00023036  00000+0  66755-3 0  9999
2 65153  51.8785 308.0559 0004252 216.0103 144.0597 15.35447422  4328
KUIPER-00118            
1 65154U 25171Y   25243.57136066  .00023664  00000+0  68757-3 0  9993
2 65154  51.8781 308.0686 0004084 221.3993 138.6684 15.35347813  4324
KUIPER-00119            
1 65155U 25171Z   25243.56294537  .00022859  00000+0  65067-3 0  9997
2 65155  51.8774 308.0112 0005176 196.0830 163.9993 15.36010756  4320
METOP-SGA1              
1 65159U 25172A   25243.57912641  .00000088  00000+0  58009-4 0  9995
2 65159  98.7058 302.7821 0006683 307.4319  52.6251 14.23706637  2639
HULIANWANG DIGUI 8A     
1 65164U 25174A   25241.88849158  .00000132  00000+0  22112-3 0  9992
2 65164  86.5041 350.4344 0002359 237.2229 122.8686 13.38100051  2228
HULIANWANG DIGUI 8B     
1 65165U 25174B   25241.89110237  .00000033  00000+0  33776-4 0  9992
2 65165  86.5004 350.4394 0002573 228.8462 131.2458 13.37797990  2220
HULIANWANG DIGUI 8C     
1 65166U 25174C   25243.76476228  .00000166  00000+0  29573-3 0  9992
2 65166  86.5047 349.7995 0000998 142.5613 217.5597 13.36064221  2477
HULIANWANG DIGUI 8D     
1 65167U 25174D   25243.31884387  .00000124  00000+0  21392-3 0  9998
2 65167  86.5039 349.9512 0001931 218.5434 141.5569 13.35935419  2413
HULIANWANG DIGUI 8E     
1 65168U 25174E   25241.89912908  .00000032  00000+0  33660-4 0  9991
2 65168  86.4997 350.4321 0003344 236.7016 123.3805 13.36516532  2221
HULIANWANG DIGUI 8F     
1 65169U 25174F   25242.79772720  .00000056  00000+0  79311-4 0  9997
2 65169  86.4992 350.1117 0001558 249.5147 110.5826 13.35856601  2346
HULIANWANG DIGUI 8G     
1 65170U 25174G   25242.80384414  .00000066  00000+0  10072-3 0  9999
2 65170  86.4987 350.1284 0003331 241.5403 118.5402 13.34842890  2347
HULIANWANG DIGUI 8H     
1 65171U 25174H   25243.70999288 -.00000014  00000+0 -58847-4 0  9999
2 65171  86.4902 349.8265 0001625 199.4315 160.6762 13.33191264  2467
HULIANWANG DIGUI 8J     
1 65172U 25174J   25242.43212003  .00000130  00000+0  22925-3 0  9996
2 65172  86.5170 350.2758 0005564 262.6081  97.4427 13.34791126  2298
HULIANWANG DIGUI 8K     
1 65173U 25174K   25242.58817643 -.00001490  00000+0 -30462-2 0  9990
2 65173  86.4998 350.2103 0004170 256.6955 103.3719 13.33764848  2285
STARLINK-34956          
1 65174U 25175A   25243.58335648 -.02142972  00000+0 -37942-1 0  9995
2 65174  97.6026 114.2575 0001815  87.8748 135.9437 15.53596800  3947
STARLINK-34949          
1 65175U 25175B   25243.58335648 -.02137454  00000+0 -37835-1 0  9996
2 65175  97.6026 114.2582 0001988  91.0426 134.6998 15.53592428  3846
STARLINK-34707          
1 65176U 25175C   25243.58335648 -.02138932  00000+0 -37860-1 0  9997
2 65176  97.6026 114.2588 0002096  96.2434 131.4177 15.53594327  4003
STARLINK-34967          
1 65177U 25175D   25243.58335648 -.02140771  00000+0 -37899-1 0  9994
2 65177  97.6028 114.2606 0002015  87.3529 142.2308 15.53593605  4008
STARLINK-34929          
1 65178U 25175E   25243.58335648 -.02144388  00000+0 -37970-1 0  9993
2 65178  97.6027 114.2617 0001825  89.5218 141.9814 15.53596355  4000
STARLINK-34932          
1 65179U 25175F   25243.58335648 -.02140368  00000+0 -37891-1 0  9990
2 65179  97.6026 114.2632 0002001  87.2808 148.0642 15.53593574  4001
STARLINK-34862          
1 65180U 25175G   25243.58335648 -.02142819  00000+0 -37939-1 0  9998
2 65180  97.6026 114.2649 0001950  88.9363 148.3297 15.53594863  4008
STARLINK-34942          
1 65181U 25175H   25243.58335648 -.02140931  00000+0 -37903-1 0  9993
2 65181  97.6029 114.2622 0001950  84.5042 148.9201 15.53593636  3949
STARLINK-34944          
1 65182U 25175J   25243.58335648 -.02139673  00000+0 -37880-1 0  9999
2 65182  97.6027 114.2654 0001912  86.3688 152.8183 15.53592744  4007
STARLINK-34939          
1 65183U 25175K   25243.58335648 -.02141344  00000+0 -37913-1 0  9995
2 65183  97.6027 114.2658 0001816  91.3946 149.7133 15.53594016  3900
STARLINK-34947          
1 65184U 25175L   25243.58335648 -.02141895  00000+0 -37922-1 0  9997
2 65184  97.6028 114.2669 0001925  86.1509 156.8764 15.53594344  4007
STARLINK-34945          
1 65185U 25175M   25243.58335648 -.02141021  00000+0 -37906-1 0  9991
2 65185  97.6031 114.2674 0001912  85.8562 159.0928 15.53593186  4009
STARLINK-34965          
1 65186U 25175N   25243.58335648 -.02138533  00000+0 -37860-1 0  9995
2 65186  97.6030 114.2685 0001935  84.3566 164.4348 15.53590827  4009
STARLINK-34915          
1 65187U 25175P   25243.58335648 -.02142191  00000+0 -37930-1 0  9999
2 65187  97.6028 114.2679 0001789  91.9575 154.9126 15.53593886  4007
STARLINK-34972          
1 65188U 25175Q   25243.58335648 -.02140644  00000+0 -37895-1 0  9991
2 65188  97.6031 114.2695 0002011  87.9066 162.8010 15.53594714  3638
STARLINK-34866          
1 65189U 25175R   25243.58335648 -.02144034  00000+0 -37965-1 0  9997
2 65189  97.6030 114.2705 0001805  94.1250 158.5066 15.53595364  4002
STARLINK-34917          
1 65190U 25175S   25243.58335648 -.02140300  00000+0 -37892-1 0  9990
2 65190  97.6027 114.2712 0001796  97.2303 157.3211 15.53594474  3896
STARLINK-34948          
1 65191U 25175T   25243.58335648 -.02142637  00000+0 -37936-1 0  9995
2 65191  97.6029 114.2717 0001917  87.2827 169.1883 15.53595078  4000
STARLINK-34955          
1 65192U 25175U   25243.58335648 -.02138269  00000+0 -37853-1 0  9990
2 65192  97.6030 114.2724 0001960  88.1918 170.2019 15.53591608  3941
STARLINK-34950          
1 65193U 25175V   25243.58335648 -.02138185  00000+0 -37856-1 0  9991
2 65193  97.6029 114.2737 0001701  94.5620 165.7549 15.53590526  3943
STARLINK-34926          
1 65194U 25175W   25243.58335648 -.02140377  00000+0 -37900-1 0  9998
2 65194  97.6033 114.2770 0001694  92.9755 175.0249 15.53591019  3947
STARLINK-34928          
1 65195U 25175X   25243.58335648 -.02143208  00000+0 -37949-1 0  9998
2 65195  97.6030 114.2761 0001785  94.2726 171.8033 15.53595066  4008
STARLINK-34927          
1 65196U 25175Y   25243.58335648 -.02142536  00000+0 -37938-1 0  9990
2 65196  97.6030 114.2743 0001747  87.6224 174.6131 15.53593512  4000
STARLINK-34952          
1 65197U 25175Z   25243.58335648 -.02141587  00000+0 -37920-1 0  9997
2 65197  97.6031 114.2752 0001750  92.4136 171.7430 15.53593171  4003
STARLINK-34981          
1 65198U 25176A   25243.58335648 -.01388074  00000+0 -13475-1 0  9991
2 65198  53.1595 321.2525 0001088  63.8330  56.4595 15.68708568  3954
STARLINK-34821          
1 65199U 25176B   25243.58335648 -.01474102  00000+0 -14455-1 0  9999
2 65199  53.1593 321.4486 0001051  52.8502 332.1820 15.68166007  3894
STARLINK-34865          
1 65200U 25176C   25243.58335648 -.01476103  00000+0 -14476-1 0  9998
2 65200  53.1594 321.4526 0001066  52.7724 330.3416 15.68167579  3957
STARLINK-34843          
1 65201U 25176D   25243.58335648 -.01471694  00000+0 -14430-1 0  9999
2 65201  53.1596 321.4444 0001027  54.8871 332.0626 15.68164457  3956
STARLINK-34905          
1 65202U 25176E   25243.58335648 -.01473726  00000+0 -14451-1 0  9991
2 65202  53.1595 321.4404 0001106  52.1126 336.7541 15.68165374  3950
STARLINK-34914          
1 65203U 25176F   25243.58335648 -.01471937  00000+0 -14432-1 0  9993
2 65203  53.1594 321.4364 0001089  51.2302 339.5533 15.68164299  3958
STARLINK-34787          
1 65204U 25176G   25243.58335648 -.01466724  00000+0 -14379-1 0  9992
2 65204  53.1594 321.4322 0000912  70.4820 322.2242 15.68158960  3959
